QZS-1R                  
1 49336U 21096A   24297.29831623 -.00000234  00000+0  00000+0 0  9999
2 49336  36.2122  88.5870 0746895 270.3519 276.5339  1.00278399 10976
